{
"type": "FeatureCollection",
"name": "railway3",
"crs": { "type": "name", "properties": { "name": "urn:ogc:def:crs:OGC:1.3:CRS84" } },
"features": [
{ "type": "Feature", "properties": { "fid": null, "class": null, "name": null }, "geometry": { "type": "LineString", "coordinates": [ [ 37.661278341735823, 55.779321219206928, 0.0 ], [ 37.677877326036146, 55.830627170680671, 0.0 ], [ 37.700512304627502, 55.87287913071787, 0.0 ], [ 37.803124207574982, 55.983036026529128, 0.0 ], [ 37.94798807055966, 56.17618784384203, 0.0 ], [ 38.120013907853966, 56.318033709681195, 0.0 ], [ 38.207535825073876, 56.373866656873204, 0.0 ], [ 38.295057742293785, 56.402537629755592, 0.0 ], [ 38.436903608132944, 56.39650163546456, 0.0 ], [ 38.651181405464442, 56.384429646882509, 0.0 ], [ 38.752284309839162, 56.39650163546456, 0.0 ], [ 38.827734238477014, 56.426681606919701, 0.0 ], [ 38.856405211359402, 56.465915569811386, 0.0 ], [ 38.904693165687625, 56.541365498449238, 0.0 ], [ 38.972598101461692, 56.588144454204709, 0.0 ], [ 39.097844983000527, 56.61832442565985, 0.0 ], [ 39.174803910211132, 56.653031392833256, 0.0 ], [ 39.220073867393843, 56.695283352870447, 0.0 ], [ 39.354374740369224, 57.155527917561344, 0.0 ], [ 39.399644697551921, 57.21136086475336, 0.0 ], [ 39.926285199444131, 57.668587432298743, 0.0 ], [ 40.130000006766323, 57.881356231057495, 0.0 ], [ 40.166215972512489, 57.956806159695347, 0.0 ], [ 40.205449935404175, 58.267659865683299, 0.0 ], [ 40.262791881168944, 58.352163785757696, 0.0 ], [ 40.344277804097835, 58.407996732949691, 0.0 ], [ 40.360876788398159, 58.438176704404832, 0.0 ], [ 40.359367789825406, 58.481937663014783, 0.0 ], [ 40.214503926840727, 58.530225617343007, 0.0 ], [ 40.205449935404182, 58.560405588798147, 0.0 ], [ 40.262791881168951, 58.608693543126378, 0.0 ], [ 40.253737889732413, 58.632837520290487, 0.0 ], [ 40.13301800391185, 58.715832441792124, 0.0 ], [ 40.234120908286556, 59.040267134934894, 0.0 ], [ 40.274863869751002, 59.067429109244515, 0.0 ], [ 40.680784485822642, 58.97387119773358, 0.0 ], [ 41.088214100467042, 58.786755374711717, 0.0 ], [ 41.53487767800312, 58.466847677287227, 0.0 ], [ 41.667669552405741, 58.430631711541061, 0.0 ], [ 42.041901198449487, 58.430631711541061, 0.0 ], [ 42.627392644679219, 58.346127791466664, 0.0 ], [ 43.037840256469131, 58.394415745794888, 0.0 ], [ 43.635403691280921, 58.29783983713844, 0.0 ], [ 44.746026640830095, 58.334055802884606, 0.0 ], [ 45.741965698849747, 58.376307762921805, 0.0 ], [ 47.926995632201937, 58.273695859974325, 0.0 ], [ 48.66942292999839, 58.315947820011523, 0.0 ], [ 49.387706250630735, 58.490991654451342, 0.0 ], [ 49.653289999435977, 58.497027648742367, 0.0 ], [ 50.830308886186465, 58.466847677287227, 0.0 ], [ 52.1461556416306, 58.255587877101242, 0.0 ], [ 52.924798905173226, 58.09261603124348, 0.0 ], [ 52.988176845229077, 58.066963055506584, 0.0 ], [ 53.033446802411731, 58.026220094042174, 0.0 ], [ 53.105878733904071, 57.911536202512636, 0.0 ], [ 53.134549706786501, 57.892673720353145, 0.0 ], [ 53.182083161828345, 57.870793241048162, 0.0 ], [ 53.238670608306691, 57.863248248184412, 0.0 ], [ 54.035421854722408, 57.929644185385726, 0.0 ], [ 54.832173101138125, 58.116760008407596, 0.0 ], [ 55.121900827107474, 58.225407905646101, 0.0 ], [ 55.203386750036415, 58.235970895655363, 0.0 ], [ 55.290908667256261, 58.225407905646101, 0.0 ], [ 55.574600398934585, 58.128831996989653, 0.0 ], [ 56.111803890836086, 58.038292082624231, 0.0 ], [ 56.234032775229494, 57.986986131150452, 0.0 ], [ 56.304955708148988, 57.929644185385726, 0.0 ], [ 56.350225665331784, 57.851176259602319, 0.0 ], [ 56.389459628223385, 57.778744328110022, 0.0 ], [ 56.649007382737608, 57.501088590722723, 0.0 ], [ 56.733511302812055, 57.451291637821711, 0.0 ], [ 56.842159200050503, 57.416584670648326, 0.0 ], [ 57.083598971691686, 57.357733726310776, 0.0 ], [ 57.186210874639109, 57.344152739155987, 0.0 ], [ 57.349182720496927, 57.363769720601802, 0.0 ], [ 57.66909041792136, 57.416584670648326, 0.0 ], [ 58.067466041129222, 57.368296716320103, 0.0 ], [ 58.604669533030723, 57.289828790536738, 0.0 ], [ 59.94466026563898, 56.897489161619909, 0.0 ], [ 60.318891911682726, 56.837129218709627, 0.0 ], [ 60.518079723286654, 56.85523720158271, 0.0 ], [ 60.643326604825546, 56.834111221564086, 0.0 ], [ 60.75951949492778, 56.800913252963461, 0.0 ], [ 61.191093086736352, 56.731499318616606, 0.0 ], [ 61.3193579654207, 56.716409332889036, 0.0 ], [ 61.411406878358818, 56.716409332889064, 0.0 ], [ 62.920405451115862, 56.8733451844558, 0.0 ], [ 63.560220845964849, 57.030281036022529, 0.0 ], [ 63.98274044633682, 57.078568990350753, 0.0 ], [ 64.779491692752529, 57.078568990350753, 0.0 ], [ 65.431379076183561, 57.157036916134132, 0.0 ], [ 65.571715943450045, 57.138928933261035, 0.0 ], [ 65.672818847824686, 57.09667697322385, 0.0 ], [ 65.865970665137581, 56.909561150201974, 0.0 ], [ 66.475606088531435, 56.54136549844926, 0.0 ], [ 66.698937877299471, 56.487041549830003, 0.0 ], [ 67.942352701251266, 56.432717601210754, 0.0 ], [ 68.811535879159322, 56.311997715390191, 0.0 ], [ 71.298365527062927, 55.454886526064172, 0.0 ], [ 72.639865258243944, 54.968234486349985, 0.0 ], [ 73.350603586012483, 54.875431074125473, 0.0 ], [ 76.006441074064895, 55.020294937110144, 0.0 ], [ 77.551655612568098, 55.165158800094815, 0.0 ], [ 79.193446059727762, 55.358310617407717, 0.0 ], [ 80.521364803753954, 55.189302777258931, 0.0 ], [ 82.597746839867625, 54.996150959946029, 0.0 ], [ 83.973953538222048, 55.382454594571833, 0.0 ], [ 86.436639208961537, 56.082629932331102, 0.0 ], [ 88.271581473434082, 56.155061863823434, 0.0 ], [ 91.410298504768718, 56.203349818151665, 0.0 ], [ 93.77640826685176, 55.817046183525868, 0.0 ], [ 95.22504689669853, 56.01019800083877, 0.0 ], [ 96.094230074606571, 56.203349818151665, 0.0 ], [ 97.615300635945673, 56.106773909495217, 0.0 ], [ 98.244553040785348, 55.970209538660662, 0.0 ], [ 98.725923585494854, 55.720470274869413, 0.0 ], [ 98.908512412798444, 55.48732999537841, 0.0 ], [ 98.991507334300081, 54.947863005617812, 0.0 ], [ 99.174096161603686, 54.823370623365314, 0.0 ], [ 99.9814103980287, 54.609847325320239, 0.0 ], [ 101.599056868024249, 54.271831645022658, 0.0 ], [ 104.254894356076633, 52.412745403385991, 0.0 ], [ 104.34694326901483, 52.306361004006561, 0.0 ], [ 104.30318231040485, 52.123017677416634, 0.0 ], [ 103.747870835630266, 51.712570065626721, 0.0 ], [ 103.725235857038939, 51.569969700501126, 0.0 ], [ 103.796158789958497, 51.44698631682148, 0.0 ], [ 104.256403354649407, 51.364745894606166, 0.0 ], [ 104.737773899358885, 51.374554385329141, 0.0 ], [ 107.248747524426591, 52.123017677416634, 0.0 ], [ 107.877999929266238, 52.070957226656482, 0.0 ], [ 108.407658428303989, 51.905721882939616, 0.0 ], [ 108.873938987285882, 51.388889871770303, 0.0 ], [ 109.20591867329243, 51.225918025912542, 0.0 ], [ 109.590713309345517, 51.22969052234447, 0.0 ], [ 113.139877952470073, 51.954009837267854, 0.0 ], [ 113.671045450080555, 51.954009837267854, 0.0 ], [ 114.153924993362807, 51.640138134134389, 0.0 ], [ 114.49194067366038, 51.615994156970274, 0.0 ], [ 116.575867702637751, 51.956273335126937, 0.0 ], [ 117.123634184548649, 52.19544960890898, 0.0 ], [ 117.34092997902566, 53.016344832488812, 0.0 ], [ 118.314234058453863, 53.537703839376306, 0.0 ], [ 119.465599969467576, 53.909671987560969, 0.0 ], [ 123.207916429904998, 54.126967782037987, 0.0 ], [ 125.641931127761993, 53.718783668107136, 0.0 ], [ 126.153481643926725, 53.499224375771064, 0.0 ], [ 128.423015497353305, 51.084826659359805, 0.0 ], [ 130.306245716154081, 49.346460303543701, 0.0 ], [ 131.368580711375046, 48.960156668917897, 0.0 ], [ 133.227666953011692, 48.573853034292092, 0.0 ], [ 135.062609217484265, 48.573853034292092, 0.0 ], [ 135.251234039078923, 48.539900566405016, 0.0 ], [ 135.328192966289492, 48.356557239815082, 0.0 ], [ 134.434865811217321, 47.149358381609453, 0.0 ], [ 132.937939227042364, 44.710816688034079, 0.0 ], [ 132.020468094806063, 43.793345555797799, 0.0 ], [ 131.871077236103162, 43.42137740761315, 0.0 ], [ 131.851460254657297, 43.093170218038537, 0.0 ] ] } }
]
}
